{"fetched_at":"2026-07-14T17:40:23.520Z","source":"https://celestrak.org/NORAD/elements/gp.php?GROUP=oneweb&FORMAT=JSON","constellation":"oneweb","records":[{"OBJECT_NAME":"ONEWEB-0435","OBJECT_ID":"2022-012L","EPOCH":"2026-07-14T01:44:46.101984","CLASSIFICATION_TYPE":"U","MEAN_MOTION":13.10376336,"ECCENTRICITY":0.0001858,"INCLINATION":87.8814,"RA_OF_ASC_NODE":30.9185,"ARG_OF_PERICENTER":98.9855,"MEAN_ANOMALY":261.1483,"EPHEMERIS_TYPE":0,"NORAD_CAT_ID":51632,"ELEMENT_SET_NO":999,"REV_AT_EPOCH":21283,"BSTAR":0.0019272,"MEAN_MOTION_DOT":0.00000685,"MEAN_MOTION_DDOT":0},{"OBJECT_NAME":"ONEWEB-0436","OBJECT_ID":"2022-012M","EPOCH":"2026-07-14T00:25:27.113088","CLASSIFICATION_TYPE":"U","MEAN_MOTION":13.17647347,"ECCENTRICITY":0.0001924,"INCLINATION":87.9151,"RA_OF_ASC_NODE":0.5095,"ARG_OF_PERICENTER":98.6885,"MEAN_ANOMALY":261.4465,"EPHEMERIS_TYPE":0,"NORAD_CAT_ID":51633,"ELEMENT_SET_NO":999,"REV_AT_EPOCH":21721,"BSTAR":-0.0001108,"MEAN_MOTION_DOT":-3e-7,"MEAN_MOTION_DDOT":0},{"OBJECT_NAME":"ONEWEB-0438","OBJECT_ID":"2022-012N","EPOCH":"2026-07-14T01:22:44.875776","CLASSIFICATION_TYPE":"U","MEAN_MOTION":13.10378564,"ECCENTRICITY":0.0001842,"INCLINATION":87.8816,"RA_OF_ASC_NODE":30.9258,"ARG_OF_PERICENTER":79.5836,"MEAN_ANOMALY":280.5499,"EPHEMERIS_TYPE":0,"NORAD_CAT_ID":51634,"ELEMENT_SET_NO":999,"REV_AT_EPOCH":21286,"BSTAR":0.0008099,"MEAN_MOTION_DOT":0.00000295,"MEAN_MOTION_DDOT":0},{"OBJECT_NAME":"ONEWEB-0439","OBJECT_ID":"2022-012P","EPOCH":"2026-07-14T01:27:39.174048","CLASSIFICATION_TYPE":"U","MEAN_MOTION":13.10377751,"ECCENTRICITY":0.0001737,"INCLINATION":87.8817,"RA_OF_ASC_NODE":30.9117,"ARG_OF_PERICENTER":84.5714,"MEAN_ANOMALY":275.5612,"EPHEMERIS_TYPE":0,"NORAD_CAT_ID":51635,"ELEMENT_SET_NO":999,"REV_AT_EPOCH":21284,"BSTAR":0.001376,"MEAN_MOTION_DOT":0.00000493,"MEAN_MOTION_DDOT":0},{"OBJECT_NAME":"ONEWEB-0442","OBJECT_ID":"2022-012Q","EPOCH":"2026-07-14T00:14:32.239104","CLASSIFICATION_TYPE":"U","MEAN_MOTION":13.17651029,"ECCENTRICITY":0.0001772,"INCLINATION":87.9143,"RA_OF_ASC_NODE":0.5413,"ARG_OF_PERICENTER":73.3159,"MEAN_ANOMALY":286.8167,"EPHEMERIS_TYPE":0,"NORAD_CAT_ID":51636,"ELEMENT_SET_NO":999,"REV_AT_EPOCH":21720,"BSTAR":0.000052324,"MEAN_MOTION_DOT":3.3e-7,"MEAN_MOTION_DDOT":0},{"OBJECT_NAME":"ONEWEB-0443","OBJECT_ID":"2022-012R","EPOCH":"2026-07-14T00:42:27.484992","CLASSIFICATION_TYPE":"U","MEAN_MOTION":13.1764848,"ECCENTRICITY":0.0001485,"INCLINATION":87.9141,"RA_OF_ASC_NODE":0.5385,"ARG_OF_PERICENTER":94.1376,"MEAN_ANOMALY":265.9925,"EPHEMERIS_TYPE":0,"NORAD_CAT_ID":51637,"ELEMENT_SET_NO":999,"REV_AT_EPOCH":21725,"BSTAR":-0.00025525,"MEAN_MOTION_DOT":-8.6e-7,"MEAN_MOTION_DDOT":0},{"OBJECT_NAME":"ONEWEB-0444","OBJECT_ID":"2022-012S","EPOCH":"2026-07-14T01:12:58.086720","CLASSIFICATION_TYPE":"U","MEAN_MOTION":13.10379213,"ECCENTRICITY":0.0001604,"INCLINATION":87.8821,"RA_OF_ASC_NODE":30.9128,"ARG_OF_PERICENTER":88.4071,"MEAN_ANOMALY":271.724,"EPHEMERIS_TYPE":0,"NORAD_CAT_ID":51638,"ELEMENT_SET_NO":999,"REV_AT_EPOCH":21285,"BSTAR":-0.00037848,"MEAN_MOTION_DOT":-0.00000119,"MEAN_MOTION_DDOT":0},{"OBJECT_NAME":"ONEWEB-0445","OBJECT_ID":"2022-012T","EPOCH":"2026-07-14T01:42:18.528192","CLASSIFICATION_TYPE":"U","MEAN_MOTION":13.10377427,"ECCENTRICITY":0.0001928,"INCLINATION":87.8823,"RA_OF_ASC_NODE":30.8987,"ARG_OF_PERICENTER":85.3477,"MEAN_ANOMALY":274.7871,"EPHEMERIS_TYPE":0,"NORAD_CAT_ID":51639,"ELEMENT_SET_NO":999,"REV_AT_EPOCH":21286,"BSTAR":0.0020185,"MEAN_MOTION_DOT":0.00000717,"MEAN_MOTION_DDOT":0},{"OBJECT_NAME":"ONEWEB-0446","OBJECT_ID":"2022-012U","EPOCH":"2026-07-14T01:10:30.709056","CLASSIFICATION_TYPE":"U","MEAN_MOTION":13.10374677,"ECCENTRICITY":0.0002043,"INCLINATION":87.882,"RA_OF_ASC_NODE":30.9303,"ARG_OF_PERICENTER":92.684,"MEAN_ANOMALY":267.4521,"EPHEMERIS_TYPE":0,"NORAD_CAT_ID":51640,"ELEMENT_SET_NO":999,"REV_AT_EPOCH":21284,"BSTAR":-0.0001368,"MEAN_MOTION_DOT":-3.5e-7,"MEAN_MOTION_DDOT":0},{"OBJECT_NAME":"ONEWEB-0448","OBJECT_ID":"2022-012V","EPOCH":"2026-07-14T01:17:51.547776","CLASSIFICATION_TYPE":"U","MEAN_MOTION":13.1037959,"ECCENTRICITY":0.0001794,"INCLINATION":87.8817,"RA_OF_ASC_NODE":30.9252,"ARG_OF_PERICENTER":87.1166,"MEAN_ANOMALY":273.0166,"EPHEMERIS_TYPE":0,"NORAD_CAT_ID":51641,"ELEMENT_SET_NO":999,"REV_AT_EPOCH":21281,"BSTAR":0.00016753,"MEAN_MOTION_DOT":7.1e-7,"MEAN_MOTION_DDOT":0},{"OBJECT_NAME":"ONEWEB-0449","OBJECT_ID":"2022-012W","EPOCH":"2026-07-14T01:25:11.591616","CLASSIFICATION_TYPE":"U","MEAN_MOTION":13.10376414,"ECCENTRICITY":0.000191,"INCLINATION":87.8821,"RA_OF_ASC_NODE":30.9109,"ARG_OF_PERICENTER":67.7691,"MEAN_ANOMALY":292.3638,"EPHEMERIS_TYPE":0,"NORAD_CAT_ID":51642,"ELEMENT_SET_NO":999,"REV_AT_EPOCH":21282,"BSTAR":0.00081931,"MEAN_MOTION_DOT":0.00000299,"MEAN_MOTION_DDOT":0},{"OBJECT_NAME":"ONEWEB-0451","OBJECT_ID":"2022-012X","EPOCH":"2026-07-14T00:20:35.532096","CLASSIFICATION_TYPE":"U","MEAN_MOTION":13.17651128,"ECCENTRICITY":0.0001715,"INCLINATION":87.9156,"RA_OF_ASC_NODE":0.5083,"ARG_OF_PERICENTER":85.7834,"MEAN_ANOMALY":274.3493,"EPHEMERIS_TYPE":0,"NORAD_CAT_ID":51643,"ELEMENT_SET_NO":999,"REV_AT_EPOCH":21719,"BSTAR":-0.000035908,"MEAN_MOTION_DOT":-1e-8,"MEAN_MOTION_DDOT":0},{"OBJECT_NAME":"ONEWEB-0452","OBJECT_ID":"2022-012Y","EPOCH":"2026-07-14T00:18:09.698400","CLASSIFICATION_TYPE":"U","MEAN_MOTION":13.17647767,"ECCENTRICITY":0.0001563,"INCLINATION":87.9144,"RA_OF_ASC_NODE":0.5428,"ARG_OF_PERICENTER":89.3706,"MEAN_ANOMALY":270.7604,"EPHEMERIS_TYPE":0,"NORAD_CAT_ID":51644,"ELEMENT_SET_NO":999,"REV_AT_EPOCH":21720,"BSTAR":0.00011432,"MEAN_MOTION_DOT":5.7e-7,"MEAN_MOTION_DDOT":0},{"OBJECT_NAME":"ONEWEB-0456","OBJECT_ID":"2022-012AA","EPOCH":"2026-07-14T01:37:23.994048","CLASSIFICATION_TYPE":"U","MEAN_MOTION":13.10374069,"ECCENTRICITY":0.0001774,"INCLINATION":87.8829,"RA_OF_ASC_NODE":30.8982,"ARG_OF_PERICENTER":91.4777,"MEAN_ANOMALY":268.6553,"EPHEMERIS_TYPE":0,"NORAD_CAT_ID":51646,"ELEMENT_SET_NO":999,"REV_AT_EPOCH":21286,"BSTAR":0.0019303,"MEAN_MOTION_DOT":0.00000687,"MEAN_MOTION_DDOT":0},{"OBJECT_NAME":"ONEWEB-0457","OBJECT_ID":"2022-012AB","EPOCH":"2026-07-14T01:05:26.061792","CLASSIFICATION_TYPE":"U","MEAN_MOTION":13.10378449,"ECCENTRICITY":0.0002122,"INCLINATION":87.8819,"RA_OF_ASC_NODE":30.9187,"ARG_OF_PERICENTER":80.0379,"MEAN_ANOMALY":280.0988,"EPHEMERIS_TYPE":0,"NORAD_CAT_ID":51647,"ELEMENT_SET_NO":999,"REV_AT_EPOCH":21286,"BSTAR":-0.0011623,"MEAN_MOTION_DOT":-0.00000393,"MEAN_MOTION_DDOT":0},{"OBJECT_NAME":"ONEWEB-0458","OBJECT_ID":"2022-012AC","EPOCH":"2026-07-14T01:36:12.019392","CLASSIFICATION_TYPE":"U","MEAN_MOTION":13.10374933,"ECCENTRICITY":0.0001624,"INCLINATION":87.8819,"RA_OF_ASC_NODE":30.9024,"ARG_OF_PERICENTER":85.299,"MEAN_ANOMALY":274.8323,"EPHEMERIS_TYPE":0,"NORAD_CAT_ID":51648,"ELEMENT_SET_NO":999,"REV_AT_EPOCH":21282,"BSTAR":0.0018387,"MEAN_MOTION_DOT":0.00000655,"MEAN_MOTION_DDOT":0}]}
