ONEWEB-0435             
1 51632U 22012L   26195.07275581  .00000685  00000+0  19272-2 0  9993
2 51632  87.8814  30.9185 0001858  98.9855 261.1483 13.10376336212831
ONEWEB-0436             
1 51633U 22012M   26195.01767492 -.00000030  00000+0 -11080-3 0  9991
2 51633  87.9151   0.5095 0001924  98.6885 261.4465 13.17647347217214
ONEWEB-0438             
1 51634U 22012N   26195.05746384  .00000295  00000+0  80990-3 0  9990
2 51634  87.8816  30.9258 0001842  79.5836 280.5499 13.10378564212863
ONEWEB-0439             
1 51635U 22012P   26195.06087007  .00000493  00000+0  13760-2 0  9992
2 51635  87.8817  30.9117 0001737  84.5714 275.5612 13.10377751212849
ONEWEB-0442             
1 51636U 22012Q   26195.01009536  .00000033  00000+0  52324-4 0  9990
2 51636  87.9143   0.5413 0001772  73.3159 286.8167 13.17651029217208
ONEWEB-0443             
1 51637U 22012R   26195.02948478 -.00000086  00000+0 -25525-3 0  9991
2 51637  87.9141   0.5385 0001485  94.1376 265.9925 13.17648480217250
ONEWEB-0444             
1 51638U 22012S   26195.05067230 -.00000119  00000+0 -37848-3 0  9991
2 51638  87.8821  30.9128 0001604  88.4071 271.7240 13.10379213212852
ONEWEB-0445             
1 51639U 22012T   26195.07104778  .00000717  00000+0  20185-2 0  9990
2 51639  87.8823  30.8987 0001928  85.3477 274.7871 13.10377427212861
ONEWEB-0446             
1 51640U 22012U   26195.04896654 -.00000035  00000+0 -13680-3 0  9998
2 51640  87.8820  30.9303 0002043  92.6840 267.4521 13.10374677212840
ONEWEB-0448             
1 51641U 22012V   26195.05406884  .00000071  00000+0  16753-3 0  9994
2 51641  87.8817  30.9252 0001794  87.1166 273.0166 13.10379590212816
ONEWEB-0449             
1 51642U 22012W   26195.05916194  .00000299  00000+0  81931-3 0  9997
2 51642  87.8821  30.9109 0001910  67.7691 292.3638 13.10376414212821
ONEWEB-0451             
1 51643U 22012X   26195.01430014 -.00000001  00000+0 -35908-4 0  9993
2 51643  87.9156   0.5083 0001715  85.7834 274.3493 13.17651128217199
ONEWEB-0452             
1 51644U 22012Y   26195.01261225  .00000057  00000+0  11432-3 0  9994
2 51644  87.9144   0.5428 0001563  89.3706 270.7604 13.17647767217209
ONEWEB-0456             
1 51646U 22012AA  26195.06763882  .00000687  00000+0  19303-2 0  9990
2 51646  87.8829  30.8982 0001774  91.4777 268.6553 13.10374069212868
ONEWEB-0457             
1 51647U 22012AB  26195.04544053 -.00000393  00000+0 -11623-2 0  9999
2 51647  87.8819  30.9187 0002122  80.0379 280.0988 13.10378449212862
ONEWEB-0458             
1 51648U 22012AC  26195.06680578  .00000655  00000+0  18387-2 0  9998
2 51648  87.8819  30.9024 0001624  85.2990 274.8323 13.10374933212829
